ORBCOMM FM05            
1 25117U 97084F   25073.06448265  .00003751  00000+0  10967-2 0  9996
2 25117  45.0132 104.6282 0000542 276.3502  83.7287 14.45379723427780
ORBCOMM FM06            
1 25118U 97084G   25072.54297628  .00003319  00000+0  97183-3 0  9990
2 25118  45.0127 106.9757 0001536 272.6152 245.8977 14.45536657427688
ORBCOMM FM07            
1 25119U 97084H   25073.14687680  .00003434  00000+0  10050-2 0  9994
2 25119  45.0119 104.8379 0000424  31.4264 328.6612 14.45496360427780
ORBCOMM FM03            
1 25158U 98007B   25073.20702681  .00002650  00000+0  98104-3 0  9995
2 25158 107.9696 300.5404 0044156  53.4359 307.0833 14.34125129410568
ORBCOMM FM04            
1 25159U 98007C   25073.20797642  .00002408  00000+0  89304-3 0  9990
2 25159 107.9678 303.6991 0039968  50.6006 309.8662 14.34385509410714
ORBCOMM FM17            
1 25413U 98046A   25073.15849952  .00002683  00000+0  98662-3 0  9994
2 25413  44.9956 346.0111 0002474  64.9699 295.1404 14.34782633389691
ORBCOMM FM18            
1 25414U 98046B   25072.91965158  .00003107  00000+0  10614-2 0  9997
2 25414  44.9917 267.0454 0005235 158.2496 201.8576 14.38107243390532
ORBCOMM FM19            
1 25415U 98046C   25072.95150006  .00003179  00000+0  10894-2 0  9999
2 25415  44.9927 268.7438 0003996 150.6010 356.4630 14.37912425390492
