<?xml version="1.0" encoding="UTF-8"?>
<ndm xmlns:xsi="http://www.w3.org/2001/XMLSchema-instance" xsi:noNamespaceSchemaLocation="https://sanaregistry.org/r/ndmxml_unqualified/ndmxml-2.0.0-master-2.0.xsd">
<omm id="CCSDS_OMM_VERS" version="2.0">
<header><CREATION_DATE/><ORIGINATOR/></header><body><segment><metadata><OBJECT_NAME>ORBCOMM FM05</OBJECT_NAME><OBJECT_ID>1997-084F</OBJECT_ID><CENTER_NAME>EARTH</CENTER_NAME><REF_FRAME>TEME</REF_FRAME><TIME_SYSTEM>UTC</TIME_SYSTEM><MEAN_ELEMENT_THEORY>SGP4</MEAN_ELEMENT_THEORY></metadata><data><meanElements><EPOCH>2025-03-14T01:32:51.300960</EPOCH><MEAN_MOTION>14.45379723</MEAN_MOTION><ECCENTRICITY>.0000542</ECCENTRICITY><INCLINATION>45.0132</INCLINATION><RA_OF_ASC_NODE>104.6282</RA_OF_ASC_NODE><ARG_OF_PERICENTER>276.3502</ARG_OF_PERICENTER><MEAN_ANOMALY>83.7287</MEAN_ANOMALY></meanElements><tleParameters><EPHEMERIS_TYPE>0</EPHEMERIS_TYPE><CLASSIFICATION_TYPE>U</CLASSIFICATION_TYPE><NORAD_CAT_ID>25117</NORAD_CAT_ID><ELEMENT_SET_NO>999</ELEMENT_SET_NO><REV_AT_EPOCH>42778</REV_AT_EPOCH><BSTAR>.10967E-2</BSTAR><MEAN_MOTION_DOT>.3751E-4</MEAN_MOTION_DOT><MEAN_MOTION_DDOT>0</MEAN_MOTION_DDOT></tleParameters></data></segment></body></omm>
<omm id="CCSDS_OMM_VERS" version="2.0">
<header><CREATION_DATE/><ORIGINATOR/></header><body><segment><metadata><OBJECT_NAME>ORBCOMM FM06</OBJECT_NAME><OBJECT_ID>1997-084G</OBJECT_ID><CENTER_NAME>EARTH</CENTER_NAME><REF_FRAME>TEME</REF_FRAME><TIME_SYSTEM>UTC</TIME_SYSTEM><MEAN_ELEMENT_THEORY>SGP4</MEAN_ELEMENT_THEORY></metadata><data><meanElements><EPOCH>2025-03-13T13:01:53.150592</EPOCH><MEAN_MOTION>14.45536657</MEAN_MOTION><ECCENTRICITY>.0001536</ECCENTRICITY><INCLINATION>45.0127</INCLINATION><RA_OF_ASC_NODE>106.9757</RA_OF_ASC_NODE><ARG_OF_PERICENTER>272.6152</ARG_OF_PERICENTER><MEAN_ANOMALY>245.8977</MEAN_ANOMALY></meanElements><tleParameters><EPHEMERIS_TYPE>0</EPHEMERIS_TYPE><CLASSIFICATION_TYPE>U</CLASSIFICATION_TYPE><NORAD_CAT_ID>25118</NORAD_CAT_ID><ELEMENT_SET_NO>999</ELEMENT_SET_NO><REV_AT_EPOCH>42768</REV_AT_EPOCH><BSTAR>.97183E-3</BSTAR><MEAN_MOTION_DOT>.3319E-4</MEAN_MOTION_DOT><MEAN_MOTION_DDOT>0</MEAN_MOTION_DDOT></tleParameters></data></segment></body></omm>
<omm id="CCSDS_OMM_VERS" version="2.0">
<header><CREATION_DATE/><ORIGINATOR/></header><body><segment><metadata><OBJECT_NAME>ORBCOMM FM07</OBJECT_NAME><OBJECT_ID>1997-084H</OBJECT_ID><CENTER_NAME>EARTH</CENTER_NAME><REF_FRAME>TEME</REF_FRAME><TIME_SYSTEM>UTC</TIME_SYSTEM><MEAN_ELEMENT_THEORY>SGP4</MEAN_ELEMENT_THEORY></metadata><data><meanElements><EPOCH>2025-03-14T03:31:30.155520</EPOCH><MEAN_MOTION>14.45496360</MEAN_MOTION><ECCENTRICITY>.0000424</ECCENTRICITY><INCLINATION>45.0119</INCLINATION><RA_OF_ASC_NODE>104.8379</RA_OF_ASC_NODE><ARG_OF_PERICENTER>31.4264</ARG_OF_PERICENTER><MEAN_ANOMALY>328.6612</MEAN_ANOMALY></meanElements><tleParameters><EPHEMERIS_TYPE>0</EPHEMERIS_TYPE><CLASSIFICATION_TYPE>U</CLASSIFICATION_TYPE><NORAD_CAT_ID>25119</NORAD_CAT_ID><ELEMENT_SET_NO>999</ELEMENT_SET_NO><REV_AT_EPOCH>42778</REV_AT_EPOCH><BSTAR>.1005E-2</BSTAR><MEAN_MOTION_DOT>.3434E-4</MEAN_MOTION_DOT><MEAN_MOTION_DDOT>0</MEAN_MOTION_DDOT></tleParameters></data></segment></body></omm>
<omm id="CCSDS_OMM_VERS" version="2.0">
<header><CREATION_DATE/><ORIGINATOR/></header><body><segment><metadata><OBJECT_NAME>ORBCOMM FM03</OBJECT_NAME><OBJECT_ID>1998-007B</OBJECT_ID><CENTER_NAME>EARTH</CENTER_NAME><REF_FRAME>TEME</REF_FRAME><TIME_SYSTEM>UTC</TIME_SYSTEM><MEAN_ELEMENT_THEORY>SGP4</MEAN_ELEMENT_THEORY></metadata><data><meanElements><EPOCH>2025-03-14T04:58:07.116384</EPOCH><MEAN_MOTION>14.34125129</MEAN_MOTION><ECCENTRICITY>.0044156</ECCENTRICITY><INCLINATION>107.9696</INCLINATION><RA_OF_ASC_NODE>300.5404</RA_OF_ASC_NODE><ARG_OF_PERICENTER>53.4359</ARG_OF_PERICENTER><MEAN_ANOMALY>307.0833</MEAN_ANOMALY></meanElements><tleParameters><EPHEMERIS_TYPE>0</EPHEMERIS_TYPE><CLASSIFICATION_TYPE>U</CLASSIFICATION_TYPE><NORAD_CAT_ID>25158</NORAD_CAT_ID><ELEMENT_SET_NO>999</ELEMENT_SET_NO><REV_AT_EPOCH>41056</REV_AT_EPOCH><BSTAR>.98104E-3</BSTAR><MEAN_MOTION_DOT>.265E-4</MEAN_MOTION_DOT><MEAN_MOTION_DDOT>0</MEAN_MOTION_DDOT></tleParameters></data></segment></body></omm>
<omm id="CCSDS_OMM_VERS" version="2.0">
<header><CREATION_DATE/><ORIGINATOR/></header><body><segment><metadata><OBJECT_NAME>ORBCOMM FM04</OBJECT_NAME><OBJECT_ID>1998-007C</OBJECT_ID><CENTER_NAME>EARTH</CENTER_NAME><REF_FRAME>TEME</REF_FRAME><TIME_SYSTEM>UTC</TIME_SYSTEM><MEAN_ELEMENT_THEORY>SGP4</MEAN_ELEMENT_THEORY></metadata><data><meanElements><EPOCH>2025-03-14T04:59:29.162688</EPOCH><MEAN_MOTION>14.34385509</MEAN_MOTION><ECCENTRICITY>.0039968</ECCENTRICITY><INCLINATION>107.9678</INCLINATION><RA_OF_ASC_NODE>303.6991</RA_OF_ASC_NODE><ARG_OF_PERICENTER>50.6006</ARG_OF_PERICENTER><MEAN_ANOMALY>309.8662</MEAN_ANOMALY></meanElements><tleParameters><EPHEMERIS_TYPE>0</EPHEMERIS_TYPE><CLASSIFICATION_TYPE>U</CLASSIFICATION_TYPE><NORAD_CAT_ID>25159</NORAD_CAT_ID><ELEMENT_SET_NO>999</ELEMENT_SET_NO><REV_AT_EPOCH>41071</REV_AT_EPOCH><BSTAR>.89304E-3</BSTAR><MEAN_MOTION_DOT>.2408E-4</MEAN_MOTION_DOT><MEAN_MOTION_DDOT>0</MEAN_MOTION_DDOT></tleParameters></data></segment></body></omm>
<omm id="CCSDS_OMM_VERS" version="2.0">
<header><CREATION_DATE/><ORIGINATOR/></header><body><segment><metadata><OBJECT_NAME>ORBCOMM FM17</OBJECT_NAME><OBJECT_ID>1998-046A</OBJECT_ID><CENTER_NAME>EARTH</CENTER_NAME><REF_FRAME>TEME</REF_FRAME><TIME_SYSTEM>UTC</TIME_SYSTEM><MEAN_ELEMENT_THEORY>SGP4</MEAN_ELEMENT_THEORY></metadata><data><meanElements><EPOCH>2025-03-14T03:48:14.358528</EPOCH><MEAN_MOTION>14.34782633</MEAN_MOTION><ECCENTRICITY>.0002474</ECCENTRICITY><INCLINATION>44.9956</INCLINATION><RA_OF_ASC_NODE>346.0111</RA_OF_ASC_NODE><ARG_OF_PERICENTER>64.9699</ARG_OF_PERICENTER><MEAN_ANOMALY>295.1404</MEAN_ANOMALY></meanElements><tleParameters><EPHEMERIS_TYPE>0</EPHEMERIS_TYPE><CLASSIFICATION_TYPE>U</CLASSIFICATION_TYPE><NORAD_CAT_ID>25413</NORAD_CAT_ID><ELEMENT_SET_NO>999</ELEMENT_SET_NO><REV_AT_EPOCH>38969</REV_AT_EPOCH><BSTAR>.98662E-3</BSTAR><MEAN_MOTION_DOT>.2683E-4</MEAN_MOTION_DOT><MEAN_MOTION_DDOT>0</MEAN_MOTION_DDOT></tleParameters></data></segment></body></omm>
<omm id="CCSDS_OMM_VERS" version="2.0">
<header><CREATION_DATE/><ORIGINATOR/></header><body><segment><metadata><OBJECT_NAME>ORBCOMM FM18</OBJECT_NAME><OBJECT_ID>1998-046B</OBJECT_ID><CENTER_NAME>EARTH</CENTER_NAME><REF_FRAME>TEME</REF_FRAME><TIME_SYSTEM>UTC</TIME_SYSTEM><MEAN_ELEMENT_THEORY>SGP4</MEAN_ELEMENT_THEORY></metadata><data><meanElements><EPOCH>2025-03-13T22:04:17.896512</EPOCH><MEAN_MOTION>14.38107243</MEAN_MOTION><ECCENTRICITY>.0005235</ECCENTRICITY><INCLINATION>44.9917</INCLINATION><RA_OF_ASC_NODE>267.0454</RA_OF_ASC_NODE><ARG_OF_PERICENTER>158.2496</ARG_OF_PERICENTER><MEAN_ANOMALY>201.8576</MEAN_ANOMALY></meanElements><tleParameters><EPHEMERIS_TYPE>0</EPHEMERIS_TYPE><CLASSIFICATION_TYPE>U</CLASSIFICATION_TYPE><NORAD_CAT_ID>25414</NORAD_CAT_ID><ELEMENT_SET_NO>999</ELEMENT_SET_NO><REV_AT_EPOCH>39053</REV_AT_EPOCH><BSTAR>.10614E-2</BSTAR><MEAN_MOTION_DOT>.3107E-4</MEAN_MOTION_DOT><MEAN_MOTION_DDOT>0</MEAN_MOTION_DDOT></tleParameters></data></segment></body></omm>
<omm id="CCSDS_OMM_VERS" version="2.0">
<header><CREATION_DATE/><ORIGINATOR/></header><body><segment><metadata><OBJECT_NAME>ORBCOMM FM19</OBJECT_NAME><OBJECT_ID>1998-046C</OBJECT_ID><CENTER_NAME>EARTH</CENTER_NAME><REF_FRAME>TEME</REF_FRAME><TIME_SYSTEM>UTC</TIME_SYSTEM><MEAN_ELEMENT_THEORY>SGP4</MEAN_ELEMENT_THEORY></metadata><data><meanElements><EPOCH>2025-03-13T22:50:09.605184</EPOCH><MEAN_MOTION>14.37912425</MEAN_MOTION><ECCENTRICITY>.0003996</ECCENTRICITY><INCLINATION>44.9927</INCLINATION><RA_OF_ASC_NODE>268.7438</RA_OF_ASC_NODE><ARG_OF_PERICENTER>150.6010</ARG_OF_PERICENTER><MEAN_ANOMALY>356.4630</MEAN_ANOMALY></meanElements><tleParameters><EPHEMERIS_TYPE>0</EPHEMERIS_TYPE><CLASSIFICATION_TYPE>U</CLASSIFICATION_TYPE><NORAD_CAT_ID>25415</NORAD_CAT_ID><ELEMENT_SET_NO>999</ELEMENT_SET_NO><REV_AT_EPOCH>39049</REV_AT_EPOCH><BSTAR>.10894E-2</BSTAR><MEAN_MOTION_DOT>.3179E-4</MEAN_MOTION_DOT><MEAN_MOTION_DDOT>0</MEAN_MOTION_DDOT></tleParameters></data></segment></body></omm>

</ndm>
